[
  {
    "COMMENT": "GENERATED VIA SPACETRACK.ORG API",
    "ORIGINATOR": "18 SPCS",
    "NORAD_CAT_ID": "41240",
    "OBJECT_NAME": "JASON 3",
    "OBJECT_TYPE": "PAYLOAD",
    "CLASSIFICATION_TYPE": "U",
    "INTLDES": "16002A",
    "EPOCH": "2023-07-06 10:53:15",
    "EPOCH_MICROSECONDS": "524160",
    "MEAN_MOTION": "12.8093045",
    "ECCENTRICITY": "0.0008214",
    "INCLINATION": "66.0391",
    "RA_OF_ASC_NODE": "211.5002",
    "ARG_OF_PERICENTER": "269.6625",
    "MEAN_ANOMALY": "90.3449",
    "EPHEMERIS_TYPE": "0",
    "ELEMENT_SET_NO": "999",
    "REV_AT_EPOCH": "34923",
    "BSTAR": "0.0000035961",
    "MEAN_MOTION_DOT": "-0.0000006",
    "MEAN_MOTION_DDOT": "0",
    "FILE": "3950926",
    "TLE_LINE0": "0 JASON 3",
    "TLE_LINE1": "1 41240U 16002A   23187.45365190 -.00000060  00000-0  35961-5 0  9990",
    "TLE_LINE2": "2 41240  66.0391 211.5002 0008214 269.6625  90.3449 12.80930450349232",
    "OBJECT_ID": "2016-002A",
    "OBJECT_NUMBER": "41240",
    "SEMIMAJOR_AXIS": "7715.868",
    "PERIOD": "112.418",
    "APOGEE": "1344.071",
    "PERIGEE": "1331.396",
    "DECAYED": "0"
  },
  {
    "COMMENT": "GENERATED VIA SPACETRACK.ORG API",
    "ORIGINATOR": "18 SPCS",
    "NORAD_CAT_ID": "41240",
    "OBJECT_NAME": "JASON 3",
    "OBJECT_TYPE": "PAYLOAD",
    "CLASSIFICATION_TYPE": "U",
    "INTLDES": "16002A",
    "EPOCH": "2023-07-07 18:44:33",
    "EPOCH_MICROSECONDS": "402624",
    "MEAN_MOTION": "12.80930494",
    "ECCENTRICITY": "0.0008222",
    "INCLINATION": "66.0389",
    "RA_OF_ASC_NODE": "208.7434",
    "ARG_OF_PERICENTER": "269.6583",
    "MEAN_ANOMALY": "90.349",
    "EPHEMERIS_TYPE": "0",
    "ELEMENT_SET_NO": "999",
    "REV_AT_EPOCH": "34940",
    "BSTAR": "0.000014215",
    "MEAN_MOTION_DOT": "-0.00000058",
    "MEAN_MOTION_DDOT": "0",
    "FILE": "3952100",
    "TLE_LINE0": "0 JASON 3",
    "TLE_LINE1": "1 41240U 16002A   23188.78094216 -.00000058  00000-0  14215-4 0  9990",
    "TLE_LINE2": "2 41240  66.0389 208.7434 0008222 269.6583  90.3490 12.80930494349401",
    "OBJECT_ID": "2016-002A",
    "OBJECT_NUMBER": "41240",
    "SEMIMAJOR_AXIS": "7715.868",
    "PERIOD": "112.418",
    "APOGEE": "1344.077",
    "PERIGEE": "1331.389",
    "DECAYED": "0"
  },
  {
    "COMMENT": "GENERATED VIA SPACETRACK.ORG API",
    "ORIGINATOR": "18 SPCS",
    "NORAD_CAT_ID": "41240",
    "OBJECT_NAME": "JASON 3",
    "OBJECT_TYPE": "PAYLOAD",
    "CLASSIFICATION_TYPE": "U",
    "INTLDES": "16002A",
    "EPOCH": "2023-07-08 19:06:08",
    "EPOCH_MICROSECONDS": "253504",
    "MEAN_MOTION": "12.80930483",
    "ECCENTRICITY": "0.0008224",
    "INCLINATION": "66.0388",
    "RA_OF_ASC_NODE": "206.6353",
    "ARG_OF_PERICENTER": "269.6527",
    "MEAN_ANOMALY": "90.3546",
    "EPHEMERIS_TYPE": "0",
    "ELEMENT_SET_NO": "999",
    "REV_AT_EPOCH": "34953",
    "BSTAR": "-0.000010901",
    "MEAN_MOTION_DOT": "-0.00000064",
    "MEAN_MOTION_DDOT": "0",
    "FILE": "3952998",
    "TLE_LINE0": "0 JASON 3",
    "TLE_LINE1": "1 41240U 16002A   23189.79592886 -.00000064  00000-0 -10901-4 0  9994",
    "TLE_LINE2": "2 41240  66.0388 206.6353 0008224 269.6527  90.3546 12.80930483349531",
    "OBJECT_ID": "2016-002A",
    "OBJECT_NUMBER": "41240",
    "SEMIMAJOR_AXIS": "7715.868",
    "PERIOD": "112.418",
    "APOGEE": "1344.079",
    "PERIGEE": "1331.388",
    "DECAYED": "0"
  },
  {
    "COMMENT": "GENERATED VIA SPACETRACK.ORG API",
    "ORIGINATOR": "18 SPCS",
    "NORAD_CAT_ID": "41240",
    "OBJECT_NAME": "JASON 3",
    "OBJECT_TYPE": "PAYLOAD",
    "CLASSIFICATION_TYPE": "U",
    "INTLDES": "16002A",
    "EPOCH": "2023-07-10 04:49:51",
    "EPOCH_MICROSECONDS": "896640",
    "MEAN_MOTION": "12.80930478",
    "ECCENTRICITY": "0.0008228",
    "INCLINATION": "66.0387",
    "RA_OF_ASC_NODE": "203.7163",
    "ARG_OF_PERICENTER": "269.61",
    "MEAN_ANOMALY": "90.3973",
    "EPHEMERIS_TYPE": "0",
    "ELEMENT_SET_NO": "999",
    "REV_AT_EPOCH": "34971",
    "BSTAR": "0.00002172",
    "MEAN_MOTION_DOT": "-0.00000056",
    "MEAN_MOTION_DDOT": "0",
    "FILE": "3954098",
    "TLE_LINE0": "0 JASON 3",
    "TLE_LINE1": "1 41240U 16002A   23191.20129510 -.00000056  00000-0  21720-4 0  9994",
    "TLE_LINE2": "2 41240  66.0387 203.7163 0008228 269.6100  90.3973 12.80930478349716",
    "OBJECT_ID": "2016-002A",
    "OBJECT_NUMBER": "41240",
    "SEMIMAJOR_AXIS": "7715.868",
    "PERIOD": "112.418",
    "APOGEE": "1344.082",
    "PERIGEE": "1331.385",
    "DECAYED": "0"
  },
  {
    "COMMENT": "GENERATED VIA SPACETRACK.ORG API",
    "ORIGINATOR": "18 SPCS",
    "NORAD_CAT_ID": "41240",
    "OBJECT_NAME": "JASON 3",
    "OBJECT_TYPE": "PAYLOAD",
    "CLASSIFICATION_TYPE": "U",
    "INTLDES": "16002A",
    "EPOCH": "2023-07-11 10:48:44",
    "EPOCH_MICROSECONDS": "28576",
    "MEAN_MOTION": "12.80930473",
    "ECCENTRICITY": "0.0008191",
    "INCLINATION": "66.0383",
    "RA_OF_ASC_NODE": "201.1216",
    "ARG_OF_PERICENTER": "269.6176",
    "MEAN_ANOMALY": "90.3901",
    "EPHEMERIS_TYPE": "0",
    "ELEMENT_SET_NO": "999",
    "REV_AT_EPOCH": "34987",
    "BSTAR": "-0.000010277",
    "MEAN_MOTION_DOT": "-0.00000063",
    "MEAN_MOTION_DDOT": "0",
    "FILE": "3955176",
    "TLE_LINE0": "0 JASON 3",
    "TLE_LINE1": "1 41240U 16002A   23192.45050959 -.00000063  00000-0 -10277-4 0  9996",
    "TLE_LINE2": "2 41240  66.0383 201.1216 0008191 269.6176  90.3901 12.80930473349878",
    "OBJECT_ID": "2016-002A",
    "OBJECT_NUMBER": "41240",
    "SEMIMAJOR_AXIS": "7715.868",
    "PERIOD": "112.418",
    "APOGEE": "1344.053",
    "PERIGEE": "1331.413",
    "DECAYED": "0"
  },
  {
    "COMMENT": "GENERATED VIA SPACETRACK.ORG API",
    "ORIGINATOR": "18 SPCS",
    "NORAD_CAT_ID": "41240",
    "OBJECT_NAME": "JASON 3",
    "OBJECT_TYPE": "PAYLOAD",
    "CLASSIFICATION_TYPE": "U",
    "INTLDES": "16002A",
    "EPOCH": "2023-07-12 11:10:18",
    "EPOCH_MICROSECONDS": "877728",
    "MEAN_MOTION": "12.80930539",
    "ECCENTRICITY": "0.0008227",
    "INCLINATION": "66.0388",
    "RA_OF_ASC_NODE": "199.0134",
    "ARG_OF_PERICENTER": "269.5919",
    "MEAN_ANOMALY": "90.4153",
    "EPHEMERIS_TYPE": "0",
    "ELEMENT_SET_NO": "999",
    "REV_AT_EPOCH": "35000",
    "BSTAR": "0.00011102",
    "MEAN_MOTION_DOT": "-0.00000035",
    "MEAN_MOTION_DDOT": "0",
    "FILE": "3956017",
    "TLE_LINE0": "0 JASON 3",
    "TLE_LINE1": "1 41240U 16002A   23193.46549627 -.00000035  00000-0  11102-3 0  9998",
    "TLE_LINE2": "2 41240  66.0388 199.0134 0008227 269.5919  90.4153 12.80930539350001",
    "OBJECT_ID": "2016-002A",
    "OBJECT_NUMBER": "41240",
    "SEMIMAJOR_AXIS": "7715.868",
    "PERIOD": "112.418",
    "APOGEE": "1344.081",
    "PERIGEE": "1331.385",
    "DECAYED": "0"
  },
  {
    "COMMENT": "GENERATED VIA SPACETRACK.ORG API",
    "ORIGINATOR": "18 SPCS",
    "NORAD_CAT_ID": "41240",
    "OBJECT_NAME": "JASON 3",
    "OBJECT_TYPE": "PAYLOAD",
    "CLASSIFICATION_TYPE": "U",
    "INTLDES": "16002A",
    "EPOCH": "2023-07-13 17:09:10",
    "EPOCH_MICROSECONDS": "993248",
    "MEAN_MOTION": "12.80930587",
    "ECCENTRICITY": "0.0008238",
    "INCLINATION": "66.0389",
    "RA_OF_ASC_NODE": "196.4187",
    "ARG_OF_PERICENTER": "269.5711",
    "MEAN_ANOMALY": "90.4361",
    "EPHEMERIS_TYPE": "0",
    "ELEMENT_SET_NO": "999",
    "REV_AT_EPOCH": "35016",
    "BSTAR": "0.00012808",
    "MEAN_MOTION_DOT": "-0.00000032",
    "MEAN_MOTION_DDOT": "0",
    "FILE": "3956705",
    "TLE_LINE0": "0 JASON 3",
    "TLE_LINE1": "1 41240U 16002A   23194.71471057 -.00000032  00000-0  12808-3 0  9999",
    "TLE_LINE2": "2 41240  66.0389 196.4187 0008238 269.5711  90.4361 12.80930587350164",
    "OBJECT_ID": "2016-002A",
    "OBJECT_NUMBER": "41240",
    "SEMIMAJOR_AXIS": "7715.868",
    "PERIOD": "112.418",
    "APOGEE": "1344.089",
    "PERIGEE": "1331.376",
    "DECAYED": "0"
  },
  {
    "COMMENT": "GENERATED VIA SPACETRACK.ORG API",
    "ORIGINATOR": "18 SPCS",
    "NORAD_CAT_ID": "41240",
    "OBJECT_NAME": "JASON 3",
    "OBJECT_TYPE": "PAYLOAD",
    "CLASSIFICATION_TYPE": "U",
    "INTLDES": "16002A",
    "EPOCH": "2023-07-14 17:30:45",
    "EPOCH_MICROSECONDS": "838944",
    "MEAN_MOTION": "12.80930614",
    "ECCENTRICITY": "0.0008217",
    "INCLINATION": "66.039",
    "RA_OF_ASC_NODE": "194.3106",
    "ARG_OF_PERICENTER": "269.5657",
    "MEAN_ANOMALY": "90.4417",
    "EPHEMERIS_TYPE": "0",
    "ELEMENT_SET_NO": "999",
    "REV_AT_EPOCH": "35029",
    "BSTAR": "0.00009845",
    "MEAN_MOTION_DOT": "-0.00000038",
    "MEAN_MOTION_DDOT": "0",
    "FILE": "3957815",
    "TLE_LINE0": "0 JASON 3",
    "TLE_LINE1": "1 41240U 16002A   23195.72969721 -.00000038  00000-0  98450-4 0  9995",
    "TLE_LINE2": "2 41240  66.0390 194.3106 0008217 269.5657  90.4417 12.80930614350297",
    "OBJECT_ID": "2016-002A",
    "OBJECT_NUMBER": "41240",
    "SEMIMAJOR_AXIS": "7715.868",
    "PERIOD": "112.418",
    "APOGEE": "1344.073",
    "PERIGEE": "1331.393",
    "DECAYED": "0"
  },
  {
    "COMMENT": "GENERATED VIA SPACETRACK.ORG API",
    "ORIGINATOR": "18 SPCS",
    "NORAD_CAT_ID": "41240",
    "OBJECT_NAME": "JASON 3",
    "OBJECT_TYPE": "PAYLOAD",
    "CLASSIFICATION_TYPE": "U",
    "INTLDES": "16002A",
    "EPOCH": "2023-07-15 17:52:20",
    "EPOCH_MICROSECONDS": "672544",
    "MEAN_MOTION": "12.80930661",
    "ECCENTRICITY": "0.0008212",
    "INCLINATION": "66.0391",
    "RA_OF_ASC_NODE": "192.2024",
    "ARG_OF_PERICENTER": "269.5479",
    "MEAN_ANOMALY": "90.4595",
    "EPHEMERIS_TYPE": "0",
    "ELEMENT_SET_NO": "999",
    "REV_AT_EPOCH": "35042",
    "BSTAR": "0.000073132",
    "MEAN_MOTION_DOT": "-0.00000044",
    "MEAN_MOTION_DDOT": "0",
    "FILE": "3958701",
    "TLE_LINE0": "0 JASON 3",
    "TLE_LINE1": "1 41240U 16002A   23196.74468371 -.00000044  00000-0  73132-4 0  9990",
    "TLE_LINE2": "2 41240  66.0391 192.2024 0008212 269.5479  90.4595 12.80930661350425",
    "OBJECT_ID": "2016-002A",
    "OBJECT_NUMBER": "41240",
    "SEMIMAJOR_AXIS": "7715.867",
    "PERIOD": "112.418",
    "APOGEE": "1344.069",
    "PERIGEE": "1331.396",
    "DECAYED": "0"
  }
]